[{"OBJECT_NAME":"STARLINK-34170","OBJECT_ID":"2025-099D","EPOCH":"2026-03-09T08:54:16.994592","MEAN_MOTION":15.27573721,"ECCENTRICITY":0.00012718,"INCLINATION":43.0004,"RA_OF_ASC_NODE":178.3629,"ARG_OF_PERICENTER":244.0869,"MEAN_ANOMALY":115.9851,"EPHEMERIS_TYPE":0,"CLASSIFICATION_TYPE":"U","NORAD_CAT_ID":63955,"ELEMENT_SET_NO":999,"REV_AT_EPOCH":4727,"BSTAR":0.0010100443,"MEAN_MOTION_DOT":0.00027631,"MEAN_MOTION_DDOT":0},{"OBJECT_NAME":"COSMOS 1953","OBJECT_ID":"1988-050A","EPOCH":"2026-03-09T18:09:26.993952","MEAN_MOTION":15.28528086,"ECCENTRICITY":0.00124769,"INCLINATION":82.5105,"RA_OF_ASC_NODE":158.18,"ARG_OF_PERICENTER":122.2454,"MEAN_ANOMALY":237.9996,"EPHEMERIS_TYPE":0,"CLASSIFICATION_TYPE":"U","NORAD_CAT_ID":19210,"ELEMENT_SET_NO":999,"REV_AT_EPOCH":3779,"BSTAR":0.00029210954,"MEAN_MOTION_DOT":8.158e-5,"MEAN_MOTION_DDOT":0}]
